GSAT0216 (GALILEO 20)   
1 43056U 17079B   26187.07728424  .00000076  00000+0  00000+0 0  9991
2 43056  55.0699 220.9866 0004838 276.6920  83.3236  1.70474558 53321
GSAT0217 (GALILEO 21)   
1 43057U 17079C   26187.29808232  .00000077  00000+0  00000+0 0  9993
2 43057  55.0683 220.9785 0003667 292.4751  67.5566  1.70474346 53316
GSAT0218 (GALILEO 22)   
1 43058U 17079D   26186.34500280  .00000075  00000+0  00000+0 0  9999
2 43058  55.0681 221.0021 0006103 274.7664  85.2358  1.70474403 53325
BEIDOU-3 M7             
1 43107U 18003A   26186.60720015 -.00000060  00000+0  00000+0 0  9996
2 43107  54.3105 301.6730 0004481  97.3589 262.7166  1.86228486 57695
BEIDOU-3 M8             
1 43108U 18003B   26188.16254439 -.00000063  00000+0  00000+0 0  9995
2 43108  54.3015 301.6004 0002979 257.8270 102.1630  1.86231031 57738
BEIDOU-3 M4             
1 43207U 18018A   26188.06871672 -.00000042  00000+0  00000+0 0  9991
2 43207  56.6676  62.4940 0007428  26.7445 333.3571  1.86231345 57110
BEIDOU-3 M3             
1 43208U 18018B   26187.59825105 -.00000041  00000+0  00000+0 0  9998
2 43208  56.6666  62.5134 0007880 344.5989  15.4415  1.86231254 57105
BEIDOU-3 M9             
1 43245U 18029A   26187.27923635 -.00000059  00000+0  00000+0 0  9992
2 43245  54.1753 299.2817 0001031 180.8160 179.2113  1.86228489 56252
BEIDOU-3 M10            
1 43246U 18029B   26188.28740515 -.00000061  00000+0  00000+0 0  9992
2 43246  54.1719 299.2724 0003315  35.7721 324.2760  1.86229562 56253
IRNSS-1I                
1 43286U 18035A   26187.83739038  .00000079  00000+0  00000+0 0  9999
2 43286  28.7973  73.8917 0018087 180.4002  27.0525  1.00279237 30279
COSMOS 2527 [GLONASS-M] 
1 43508U 18053A   26188.26296356 -.00000019  00000+0  00000+0 0  9990
2 43508  65.5882  73.2382 0006718 232.6359 127.3650  2.13102315 62700
BEIDOU-2 IGSO-7         
1 43539U 18057A   26182.89122331 -.00000033  00000+0  00000+0 0  9998
2 43539  55.1981 162.9292 0104946 237.8611 308.6338  1.00246939 29273
GSAT0221 (GALILEO 25)   
1 43564U 18060A   26187.42223834 -.00000071  00000+0  00000+0 0  9996
2 43564  57.1630 341.2618 0002573 291.0401  68.9323  1.70476116 49495
GSAT0222 (GALILEO 26)   
1 43565U 18060B   26187.05533706 -.00000071  00000+0  00000+0 0  9998
2 43565  57.1664 341.2753 0002540 237.0992 122.8759  1.70475873 49539
GSAT0219 (GALILEO 23)   
1 43566U 18060C   26187.86278952 -.00000071  00000+0  00000+0 0  9997
2 43566  57.1653 341.2551 0001764 304.6293  55.3544  1.70476064 49520
GSAT0220 (GALILEO 24)   
1 43567U 18060D   26188.08378388 -.00000071  00000+0  00000+0 0  9997
2 43567  57.1651 341.2500 0002042 295.4390  64.5404  1.70475891 49511
BEIDOU-3 M5             
1 43581U 18062A   26187.43745046  .00000113  00000+0  00000+0 0  9998
2 43581  54.0864 181.6496 0005706 290.6988  69.2445  1.86228869 53991
BEIDOU-3 M6             
1 43582U 18062B   26188.37493262  .00000119  00000+0  00000+0 0  9999
2 43582  54.0860 181.6071 0005088   9.1977 350.8186  1.86227975 54013
BEIDOU-3 M12            
1 43602U 18067A   26188.31336324  .00000118  00000+0  00000+0 0  9995
2 43602  54.1816 180.3578 0007908  30.2614 329.7892  1.86227798 53495
BEIDOU-3 M11            
1 43603U 18067B   26188.44848271  .00000119  00000+0  00000+0 0  9990
2 43603  54.1790 180.3167 0004618  13.4684 346.5491  1.86227306 53527
BEIDOU-3 M13            
1 43622U 18072A   26187.86626377 -.00000042  00000+0  00000+0 0  9999
2 43622  56.6412  62.0108 0006453 332.0878  27.9414  1.86231573 53022
BEIDOU-3 M14            
1 43623U 18072B   26187.73170765 -.00000042  00000+0  00000+0 0  9991
2 43623  56.6432  62.0091 0005560   9.9346 350.1406  1.86231254 53011
BEIDOU-3 M16            
1 43647U 18078A   26188.42370037 -.00000062  00000+0  00000+0 0  9996
2 43647  54.0702 299.2766 0006751  40.2464 319.8292  1.86232245 52536
BEIDOU-3 M15            
1 43648U 18078B   26187.47907947 -.00000060  00000+0  00000+0 0  9995
2 43648  54.0667 299.3099 0003770  58.5392 301.5247  1.86232415 52534
BEIDOU-3 G1             
1 43683U 18085A   26188.74686985 -.00000095  00000+0  00000+0 0  9997
2 43683   2.9173  96.8329 0008437 354.4863 263.1952  1.00273488 28269
COSMOS 2529 [GLONASS-M] 
1 43687U 18086A   26187.42074304  .00000113  00000+0  00000+0 0  9992
2 43687  64.2965 191.9448 0012128 256.2466 103.6470  2.13102124 59699
BEIDOU-3 M17            
1 43706U 18093A   26188.39538441  .00000119  00000+0  00000+0 0  9992
2 43706  54.1700 181.6109 0010157 293.2280 212.5865  1.86228313 51914
BEIDOU-3 M18            
1 43707U 18093B   26188.04136145  .00000117  00000+0  00000+0 0  9998
2 43707  54.1709 181.6150 0008066 321.5361  38.4125  1.86226750 51907
NAVSTAR 77 (USA 289)    
1 43873U 18109A   26188.19764111 -.00000015  00000+0  00000+0 0  9994
2 43873  55.6931  91.3977 0038543 197.4129 334.8050  2.00562549 55475
BEIDOU-3 IGSO-1         
1 44204U 19023A   26188.39613446 -.00000208  00000+0  00000+0 0  9999
2 44204  58.7230  37.4430 0025584 223.9763 285.4775  1.00285689  7417
BEIDOU-2 G8             
1 44231U 19027A   26188.88659801 -.00000233  00000+0  00000+0 0  9990
2 44231   1.7072  74.5162 0009917 284.7279  30.2695  1.00274660 26282
